{
  "type": "FeatureCollection",
  "features": [
    {
      "type": "Feature",
      "properties": {
        "norad_id": 40069,
        "name": "METEOR-M 2",
        "group": "weather",
        "lat": 69.43110519385704,
        "lon": -44.96728698673001,
        "alt_km": 814.1040893510253,
        "timestamp": "2025-12-27T11:23:19.520485+00:00",
        "meta_object_name": "METEOR-M 2",
        "meta_object_id": "2014-037A",
        "meta_epoch": "2025-12-27T04:17:49.246944",
        "meta_mean_motion": 14.21392294,
        "meta_eccentricity": 0.0005717,
        "meta_inclination": 98.4923,
        "meta_ra_of_asc_node": 338.2112,
        "meta_arg_of_pericenter": 165.1156,
        "meta_mean_anomaly": 195.0191,
        "meta_ephemeris_type": 0,
        "meta_classification_type": "U",
        "meta_norad_cat_id": 40069,
        "meta_element_set_no": 999,
        "meta_rev_at_epoch": 59488,
        "meta_bstar": 0.00011434,
        "meta_mean_motion_dot": 2.08e-06,
        "meta_mean_motion_ddot": 0,
        "tle_line1": "1 40069U 14037A   25361.17904221  .00000208  00000+0  11434-3 0  9992",
        "tle_line2": "2 40069  98.4923 338.2112 0005717 165.1156 195.0191 14.21392294594888"
      },
      "geometry": {
        "type": "Point",
        "coordinates": [
          -44.96728698673001,
          69.43110519385704
        ]
      }
    },
    {
      "type": "Feature",
      "properties": {
        "norad_id": 40267,
        "name": "HIMAWARI-8",
        "group": "weather",
        "lat": 0.0014639664207121547,
        "lon": 47.70055449556004,
        "alt_km": 35787.46295033481,
        "timestamp": "2025-12-27T11:23:19.520497+00:00",
        "meta_object_name": "HIMAWARI-8",
        "meta_object_id": "2014-060A",
        "meta_epoch": "2025-12-26T08:33:59.245344",
        "meta_mean_motion": 1.0027063,
        "meta_eccentricity": 0.000101,
        "meta_inclination": 0.0427,
        "meta_ra_of_asc_node": 196.506,
        "meta_arg_of_pericenter": 108.6661,
        "meta_mean_anomaly": 59.0936,
        "meta_ephemeris_type": 0,
        "meta_classification_type": "U",
        "meta_norad_cat_id": 40267,
        "meta_element_set_no": 999,
        "meta_rev_at_epoch": 4102,
        "meta_bstar": 0,
        "meta_mean_motion_dot": -2.54e-06,
        "meta_mean_motion_ddot": 0,
        "tle_line1": "1 40267U 14060A   25360.35693571 -.00000254  00000+0  00000+0 0  9995",
        "tle_line2": "2 40267   0.0427 196.5060 0001010 108.6661  59.0936  1.00270630 41029"
      },
      "geometry": {
        "type": "Point",
        "coordinates": [
          47.70055449556004,
          0.0014639664207121547
        ]
      }
    },
    {
      "type": "Feature",
      "properties": {
        "norad_id": 40367,
        "name": "FENGYUN 2G",
        "group": "weather",
        "lat": -4.845226680542987,
        "lon": 6.449080914351374,
        "alt_km": 35788.05083790979,
        "timestamp": "2025-12-27T11:23:19.520509+00:00",
        "meta_object_name": "FENGYUN 2G",
        "meta_object_id": "2014-090A",
        "meta_epoch": "2025-12-27T01:29:24.780768",
        "meta_mean_motion": 1.00281225,
        "meta_eccentricity": 0.0001825,
        "meta_inclination": 5.2014,
        "meta_ra_of_asc_node": 74.9206,
        "meta_arg_of_pericenter": 170.6218,
        "meta_mean_anomaly": 331.9129,
        "meta_ephemeris_type": 0,
        "meta_classification_type": "U",
        "meta_norad_cat_id": 40367,
        "meta_element_set_no": 999,
        "meta_rev_at_epoch": 4027,
        "meta_bstar": 0,
        "meta_mean_motion_dot": -2.81e-06,
        "meta_mean_motion_ddot": 0,
        "tle_line1": "1 40367U 14090A   25361.06209237 -.00000281  00000+0  00000+0 0  9990",
        "tle_line2": "2 40367   5.2014  74.9206 0001825 170.6218 331.9129  1.00281225 40275"
      },
      "geometry": {
        "type": "Point",
        "coordinates": [
          6.449080914351374,
          -4.845226680542987
        ]
      }
    },
    {
      "type": "Feature",
      "properties": {
        "norad_id": 40732,
        "name": "METEOSAT-11 (MSG-4)",
        "group": "weather",
        "lat": -1.157243118951291,
        "lon": -83.80220237353535,
        "alt_km": 35785.09390034992,
        "timestamp": "2025-12-27T11:23:19.520521+00:00",
        "meta_object_name": "METEOSAT-11 (MSG-4)",
        "meta_object_id": "2015-034A",
        "meta_epoch": "2025-12-27T02:46:21.982080",
        "meta_mean_motion": 1.00271993,
        "meta_eccentricity": 6.56e-05,
        "meta_inclination": 2.7724,
        "meta_ra_of_asc_node": 71.9627,
        "meta_arg_of_pericenter": 136.5794,
        "meta_mean_anomaly": 298.0847,
        "meta_ephemeris_type": 0,
        "meta_classification_type": "U",
        "meta_norad_cat_id": 40732,
        "meta_element_set_no": 999,
        "meta_rev_at_epoch": 549,
        "meta_bstar": 0,
        "meta_mean_motion_dot": 8.2e-07,
        "meta_mean_motion_ddot": 0,
        "tle_line1": "1 40732U 15034A   25361.11553220  .00000082  00000+0  00000+0 0  9993",
        "tle_line2": "2 40732   2.7724  71.9627 0000656 136.5794 298.0847  1.00271993  5492"
      },
      "geometry": {
        "type": "Point",
        "coordinates": [
          -83.80220237353535,
          -1.157243118951291
        ]
      }
    },
    {
      "type": "Feature",
      "properties": {
        "norad_id": 41105,
        "name": "ELEKTRO-L 2",
        "group": "weather",
        "lat": -0.0015535831485250097,
        "lon": -107.45494366844278,
        "alt_km": 35772.281127141105,
        "timestamp": "2025-12-27T11:23:19.520533+00:00",
        "meta_object_name": "ELEKTRO-L 2",
        "meta_object_id": "2015-074A",
        "meta_epoch": "2025-12-27T00:56:52.317888",
        "meta_mean_motion": 1.00271623,
        "meta_eccentricity": 0.000369,
        "meta_inclination": 6.2593,
        "meta_ra_of_asc_node": 72.658,
        "meta_arg_of_pericenter": 207.3207,
        "meta_mean_anomaly": 175.545,
        "meta_ephemeris_type": 0,
        "meta_classification_type": "U",
        "meta_norad_cat_id": 41105,
        "meta_element_set_no": 999,
        "meta_rev_at_epoch": 3678,
        "meta_bstar": 0,
        "meta_mean_motion_dot": -9.7e-07,
        "meta_mean_motion_ddot": 0,
        "tle_line1": "1 41105U 15074A   25361.03949442 -.00000097  00000+0  00000+0 0  9995",
        "tle_line2": "2 41105   6.2593  72.6580 0003690 207.3207 175.5450  1.00271623 36788"
      },
      "geometry": {
        "type": "Point",
        "coordinates": [
          -107.45494366844278,
          -0.0015535831485250097
        ]
      }
    },
    {
      "type": "Feature",
      "properties": {
        "norad_id": 41752,
        "name": "INSAT-3DR",
        "group": "weather",
        "lat": -0.04656913734816328,
        "lon": -18.826981702470437,
        "alt_km": 35764.22001967229,
        "timestamp": "2025-12-27T11:23:19.520545+00:00",
        "meta_object_name": "INSAT-3DR",
        "meta_object_id": "2016-054A",
        "meta_epoch": "2025-12-27T01:22:12.391968",
        "meta_mean_motion": 1.00271416,
        "meta_eccentricity": 0.0014402,
        "meta_inclination": 0.042,
        "meta_ra_of_asc_node": 85.462,
        "meta_arg_of_pericenter": 186.7324,
        "meta_mean_anomaly": 278.1407,
        "meta_ephemeris_type": 0,
        "meta_classification_type": "U",
        "meta_norad_cat_id": 41752,
        "meta_element_set_no": 999,
        "meta_rev_at_epoch": 3409,
        "meta_bstar": 0,
        "meta_mean_motion_dot": -5.5e-07,
        "meta_mean_motion_ddot": 0,
        "tle_line1": "1 41752U 16054A   25361.05708787 -.00000055  00000+0  00000+0 0  9993",
        "tle_line2": "2 41752   0.0420  85.4620 0014402 186.7324 278.1407  1.00271416 34091"
      },
      "geometry": {
        "type": "Point",
        "coordinates": [
          -18.826981702470437,
          -0.04656913734816328
        ]
      }
    },
    {
      "type": "Feature",
      "properties": {
        "norad_id": 41836,
        "name": "HIMAWARI-9",
        "group": "weather",
        "lat": 0.0009519957266103901,
        "lon": 47.81734085919927,
        "alt_km": 35788.48612559384,
        "timestamp": "2025-12-27T11:23:19.520557+00:00",
        "meta_object_name": "HIMAWARI-9",
        "meta_object_id": "2016-064A",
        "meta_epoch": "2025-12-27T00:52:38.599104",
        "meta_mean_motion": 1.00270173,
        "meta_eccentricity": 8.96e-05,
        "meta_inclination": 0.0131,
        "meta_ra_of_asc_node": 83.7635,
        "meta_arg_of_pericenter": 204.0016,
        "meta_mean_anomaly": 321.9511,
        "meta_ephemeris_type": 0,
        "meta_classification_type": "U",
        "meta_norad_cat_id": 41836,
        "meta_element_set_no": 999,
        "meta_rev_at_epoch": 3348,
        "meta_bstar": 0,
        "meta_mean_motion_dot": -2.53e-06,
        "meta_mean_motion_ddot": 0,
        "tle_line1": "1 41836U 16064A   25361.03655786 -.00000253  00000+0  00000+0 0  9995",
        "tle_line2": "2 41836   0.0131  83.7635 0000896 204.0016 321.9511  1.00270173 33488"
      },
      "geometry": {
        "type": "Point",
        "coordinates": [
          47.81734085919927,
          0.0009519957266103901
        ]
      }
    }
  ]
}